[{"OBJECT_ID":"2000-061A","OBJECT_NAME":"HETE 2","NORAD_CAT_ID":"26561","OBJECT_TYPE":"PAYLOAD","PERIOD":"95.570","INCLINATION":"1.9492","APOGEE":"559.105","PERIGEE":"533.248","ECCENTRICITY":"0.0018671","MEAN_MOTION":"15.06738322","TLE_LINE1":"1 26561U 00061A   16238.15073037  .00001569  00000-0  44308-4 0  9997","TLE_LINE2":"2 26561   1.9492 119.7553 0018671 190.6947 169.2698 15.06738322870112","LAUNCH_DATE":"2000-10-09","LAUNCH_SITE":"Kwajalein","OWNER":"UNITED STATES OF AMERICA","ORBIT_TYPE":"Low Earth Orbit","OPERATIONAL_STATUS":"Nonoperational","satInfo":{"lng":13.831703021358361,"lat":-1.942616026595977,"elevation":-43.619478097115774,"azimuth":301.16829697864165,"range":9552.936103266671,"height":541.5428881953858,"velocity":7.593052301823958},"x":1,"y":-5,"dx":7.37287007533875,"dy":-1.8152768688022458},{"OBJECT_ID":"2000-061B","OBJECT_NAME":"PEGASUS R/B","NORAD_CAT_ID":"26562","OBJECT_TYPE":"ROCKET BODY","PERIOD":"95.478","INCLINATION":"1.9622","APOGEE":"553.578","PERIGEE":"529.844","ECCENTRICITY":"0.0017149","MEAN_MOTION":"15.08197064","TLE_LINE1":"1 26562U 00061B   16239.18925260  .00001548  00000-0  40676-4 0  9997","TLE_LINE2":"2 26562   1.9622  24.8825 0017149  14.4585 345.5947 15.08197064870756","LAUNCH_DATE":"2000-10-09","LAUNCH_SITE":"Kwajalein","OWNER":"UNITED STATES OF AMERICA","ORBIT_TYPE":"Low Earth Orbit","OPERATIONAL_STATUS":"N/A, derelict rocket body","satInfo":{"lng":178.57692164320375,"lat":0.23480029705813688,"elevation":-42.43326800202886,"azimuth":136.42307835679622,"range":9379.924797612148,"height":544.9026989044542,"velocity":7.587041380317556},"x":0,"y":4,"dx":-7.584701290681417,"dy":-0.18842302881170972},{"OBJECT_ID":"2000-067A","OBJECT_NAME":"AMC-6 (GE-6)","NORAD_CAT_ID":"26580","OBJECT_TYPE":"PAYLOAD","PERIOD":"1436.123","INCLINATION":"0.0479","APOGEE":"35799.084","PERIGEE":"35775.168","ECCENTRICITY":"0.0002836","MEAN_MOTION":"1.00269895","TLE_LINE1":"1 26580U 00067A   16239.27101584 -.00000287  00000-0  00000+0 0  9990","TLE_LINE2":"2 26580   0.0479 295.8019 0002836 240.9369 183.7494  1.00269895 58075","LAUNCH_DATE":"2000-10-21","LAUNCH_SITE":"TYURATAM MISSILE AND SPACE COMPLEX","OWNER":"SOCIÉTÉ EUROPÉENNE DES SATELLITES","ORBIT_TYPE":"Geosynchronous","OPERATIONAL_STATUS":"Operational","satInfo":{"lng":-89.82929917185854,"lat":0.07994754800445007,"elevation":-8.493269530658429,"azimuth":44.82929917185851,"range":42644.677712489196,"height":35798.9069119118,"velocity":3.074302894816581},"x":-300,"y":-1,"dx":0.009159230892990566,"dy":3.0742892507971757},{"OBJECT_ID":"2000-068A","OBJECT_NAME":"INTELSAT 12 (PAS 12)","NORAD_CAT_ID":"26590","OBJECT_TYPE":"PAYLOAD","PERIOD":"1436.106","INCLINATION":"0.0559","APOGEE":"35797.130","PERIGEE":"35776.452","ECCENTRICITY":"0.0002452","MEAN_MOTION":"1.0027109","TLE_LINE1":"1 26590U 00068A   16238.78943113  .00000110  00000-0  00000+0 0  9993","TLE_LINE2":"2 26590   0.0559 271.2995 0002452 276.4860 115.8519  1.00271090 57871","LAUNCH_DATE":"2000-10-29","LAUNCH_SITE":"FRENCH GUIANA","OWNER":"EUROPEAN SPACE AGENCY","ORBIT_TYPE":"Geosynchronous","OPERATIONAL_STATUS":"Operational","satInfo":{"lng":100.13125703372862,"lat":-1.3601208204756048,"elevation":-9.901784508315144,"azimuth":214.86874296627138,"range":42781.79429805626,"height":35778.2438527065,"velocity":3.0749411704195975},"x":295,"y":51,"dx":-0.5408937875038091,"dy":-3.026994732764038},{"OBJECT_ID":"2000-072A","OBJECT_NAME":"INTELSAT 1R (PAS 1R)","NORAD_CAT_ID":"26608","OBJECT_TYPE":"PAYLOAD","PERIOD":"1436.131","INCLINATION":"0.0525","APOGEE":"35791.972","PERIGEE":"35782.595","ECCENTRICITY":"0.0001112","MEAN_MOTION":"1.00269335","TLE_LINE1":"1 26608U 00072A   16238.09643770 -.00000308  00000-0  00000+0 0  9998","TLE_LINE2":"2 26608   0.0525 293.1629 0001112 275.7967 109.4630  1.00269335 57729","LAUNCH_DATE":"2000-11-16","LAUNCH_SITE":"FRENCH GUIANA","OWNER":"UNITED STATES OF AMERICA","ORBIT_TYPE":"Geosynchronous","OPERATIONAL_STATUS":"Operational","satInfo":{"lng":-52.315046321095494,"lat":1.4426735995242752,"elevation":-7.161066047284415,"azimuth":7.315046321095474,"range":42487.881157145384,"height":35791.67701033021,"velocity":3.074521503734059},"x":-238,"y":-180,"dx":1.8795141416359018,"dy":2.4331274254164743},{"OBJECT_ID":"2000-076A","OBJECT_NAME":"ANIK F1","NORAD_CAT_ID":"26624","OBJECT_TYPE":"PAYLOAD","PERIOD":"1436.095","INCLINATION":"0.0162","APOGEE":"35799.458","PERIGEE":"35773.678","ECCENTRICITY":"0.0003057","MEAN_MOTION":"1.00271887","TLE_LINE1":"1 26624U 00076A   16238.37019778 -.00000100 +00000-0 +00000-0 0  9997","TLE_LINE2":"2 26624 000.0162 149.6627 0003057 006.2149 204.1312 01.00271887007209","LAUNCH_DATE":"2000-11-21","LAUNCH_SITE":"FRENCH GUIANA","OWNER":"CANADA","ORBIT_TYPE":"Geosynchronous","OPERATIONAL_STATUS":"Operational","satInfo":{"lng":-104.97086977659637,"lat":0.9604631953586791,"elevation":-7.634978592128327,"azimuth":59.97086977659635,"range":42533.69395813919,"height":35784.39718284874,"velocity":3.0747888394421707},"x":-290,"y":75,"dx":-0.7943037970190139,"dy":2.9704221728904647},{"OBJECT_ID":"2000-081B","OBJECT_NAME":"AMC-8 (GE-8)","NORAD_CAT_ID":"26639","OBJECT_TYPE":"PAYLOAD","PERIOD":"1436.048","INCLINATION":"0.0661","APOGEE":"35795.848","PERIGEE":"35775.449","ECCENTRICITY":"0.0002419","MEAN_MOTION":"1.00275168","TLE_LINE1":"1 26639U 00081B   16239.27202251  .00000076  00000-0  00000+0 0  9999","TLE_LINE2":"2 26639   0.0661 287.8686 0002419 211.2755 154.7363  1.00275168 57354","LAUNCH_DATE":"2000-12-20","LAUNCH_SITE":"FRENCH GUIANA","OWNER":"SOCIÉTÉ EUROPÉENNE DES SATELLITES","ORBIT_TYPE":"Geosynchronous","OPERATIONAL_STATUS":"Operational","satInfo":{"lng":-121.04595955695699,"lat":-0.7866417843522248,"elevation":-9.344610624847828,"azimuth":76.04595955695696,"range":42711.76894727223,"height":35770.797782340625,"velocity":3.0752623430656416},"x":-257,"y":151,"dx":-1.5859911544937333,"dy":2.634742973526111},{"OBJECT_ID":"2001-002A","OBJECT_NAME":"TURKSAT 2A","NORAD_CAT_ID":"26666","OBJECT_TYPE":"PAYLOAD","PERIOD":"1436.177","INCLINATION":"0.536","APOGEE":"35802.547","PERIGEE":"35773.782","ECCENTRICITY":"0.0003411","MEAN_MOTION":"1.00266192","TLE_LINE1":"1 26666U 01002A   16238.19527586  .00000000  00000-0  10000-3 0  9996","TLE_LINE2":"2 26666   0.5360  84.7113 0003411  53.4730 307.8437  1.00266192 57244","LAUNCH_DATE":"2001-01-10","LAUNCH_SITE":"FRENCH GUIANA","OWNER":"TURKEY","ORBIT_TYPE":"Geosynchronous","OPERATIONAL_STATUS":"Operational","satInfo":{"lng":97.77186293005612,"lat":1.8694565830530594,"elevation":-6.748318516594041,"azimuth":217.2281370699439,"range":42412.19021987775,"height":35762.62435687056,"velocity":3.075909836627346},"x":297,"y":39,"dx":-0.4159522579553605,"dy":-3.047655663319382},{"OBJECT_ID":"2001-011A","OBJECT_NAME":"EUTE 28A (EB 1)","NORAD_CAT_ID":"26719","OBJECT_TYPE":"PAYLOAD","PERIOD":"1436.141","INCLINATION":"0.0695","APOGEE":"35799.570","PERIGEE":"35775.384","ECCENTRICITY":"0.0002868","MEAN_MOTION":"1.00268644","TLE_LINE1":"1 26719U 01011A   16238.08104793 +.00000130 +00000-0 +00000-0 0  9994","TLE_LINE2":"2 26719 000.0695 336.7071 0002868 195.5082 223.8190 01.00268644056656","LAUNCH_DATE":"2001-03-08","LAUNCH_SITE":"FRENCH GUIANA","OWNER":"EUROPEAN TELECOMMUNICATIONS SATELLITE ORGANIZATION (EUTELSAT)","ORBIT_TYPE":"Geosynchronous","OPERATIONAL_STATUS":"Operational","satInfo":{"lng":85.46035283171551,"lat":0.6790859227756169,"elevation":-7.914481915907625,"azimuth":229.5396471682845,"range":42544.48588404717,"height":35764.056495634075,"velocity":3.0754660996839975},"x":299,"y":-24,"dx":0.24341981226120335,"dy":-3.0658177580058834},{"OBJECT_ID":"2001-011C","OBJECT_NAME":"ARIANE 5 R/B","NORAD_CAT_ID":"26721","OBJECT_TYPE":"ROCKET BODY","PERIOD":"641.257","INCLINATION":"1.5753","APOGEE":"35633.591","PERIGEE":"875.907","ECCENTRICITY":"0.7055139","MEAN_MOTION":"2.24558687","TLE_LINE1":"1 26721U 01011C   16238.87917516 -.00000260 +00000-0 -13675-2 0  9999","TLE_LINE2":"2 26721 001.5753 096.4020 7055139 220.5920 343.9057 02.24558687126908","LAUNCH_DATE":"2001-03-08","LAUNCH_SITE":"FRENCH GUIANA","OWNER":"FRANCE","ORBIT_TYPE":"Highly Elliptical Orbit","OPERATIONAL_STATUS":"N/A, derelict rocket body","satInfo":{"lng":141.25052085330543,"lat":4.1262133784491235,"elevation":-6.654369225950303,"azimuth":173.74947914669457,"range":33914.796845698016,"height":27395.6168172564,"velocity":2.7248773386949594},"x":144,"y":175,"dx":-2.125105059306842,"dy":-1.7055453666911906},{"OBJECT_ID":"2001-011D","OBJECT_NAME":"ARIANE 5 DEB (SYLDA)","NORAD_CAT_ID":"26722","OBJECT_TYPE":"DEBRIS","PERIOD":"646.152","INCLINATION":"1.7514","APOGEE":"35886.741","PERIGEE":"873.150","ECCENTRICITY":"0.7071144","MEAN_MOTION":"2.22857521","TLE_LINE1":"1 26722U 01011D   16238.61205559 -.00000162 +00000-0 +14600-2 0  9998","TLE_LINE2":"2 26722 001.7514 114.3557 7071144 185.9728 027.6840 02.22857521125985","LAUNCH_DATE":"2001-03-08","LAUNCH_SITE":"FRENCH GUIANA","OWNER":"FRANCE","ORBIT_TYPE":"Highly Elliptical Orbit","OPERATIONAL_STATUS":"N/A, space debris","satInfo":{"lng":-36.24965433416503,"lat":-5.6277746534708815,"elevation":-43.58473105403654,"azimuth":351.24965433416503,"range":10279.026557038307,"height":1103.3903932282665,"velocity":9.51023226700312},"x":-6,"y":-8,"dx":7.669509423482408,"dy":5.623445827556433}]